OBJECT_NAME,OBJECT_ID,EPOCH,MEAN_MOTION,ECCENTRICITY,INCLINATION,RA_OF_ASC_NODE,ARG_OF_PERICENTER,MEAN_ANOMALY,EPHEMERIS_TYPE,CLASSIFICATION_TYPE,NORAD_CAT_ID,ELEMENT_SET_NO,REV_AT_EPOCH,BSTAR,MEAN_MOTION_DOT,MEAN_MOTION_DDOT
OPS 6582 (TRANSIT 5B-5),1964-083D,2026-06-16T01:26:53.896128,13.57012867,.0039487,90.0762,203.0312,281.7467,134.9473,0,U,965,999,4346,.79117E-4,.65E-6,0
LES-1,1965-008C,2026-06-15T22:07:54.713856,9.88354877,.0015608,32.1466,47.7011,265.7537,94.1176,0,U,1002,999,21606,-.88736E-3,.2E-7,0
SOLRAD 7B,1965-016D,2026-06-15T14:32:06.253152,13.94975472,.00189191,70.0789,239.6259,127.5843,232.6984,0,U,1291,999,11648,.46473301E-4,.1E-6,0
SECOR 4 (EGRS 4),1965-027B,2026-06-16T00:45:11.960352,12.92667928,.003044,90.2495,15.5519,200.4622,287.8466,0,U,1315,999,88677,-.65407E-4,-.1E-6,0
TIROS 10,1965-051A,2026-06-15T22:23:02.724288,14.41630700,.0056449,98.5038,286.2688,83.0515,277.7091,0,U,1430,999,19573,.50945E-4,.124E-5,0
ALOUETTE 2,1965-098A,2026-06-16T00:34:05.755008,12.28342896,.1329754,79.8010,277.6437,234.8898,112.0387,0,U,1804,999,67913,.15308E-3,.462E-5,0
OV3-3,1966-070A,2026-06-16T04:07:11.786016,13.45353076,.101217,81.3250,331.9072,160.3001,204.0399,0,U,2389,999,59883,.69255E-3,.15535E-3,0
SECOR 7 (EGRS 7),1966-077B,2026-05-31T19:23:56.009760,8.59615314,.0011654,90.3353,277.2466,75.1080,285.1061,0,U,2411,999,87597,-.94660848E-2,-.17E-6,0
ERS 15,1966-077C,2026-05-30T06:48:48.924576,8.59079282,.00073123,90.3351,277.0217,86.0359,274.1328,0,U,2412,999,38892,0,.2E-7,0
ISIS 1,1969-009A,2026-06-16T05:13:42.773088,11.30433754,.1706207,88.4427,144.5062,250.1839,90.7899,0,U,3669,999,35966,.20772E-4,.28E-6,0
SECOR 13 (EGRS 13),1969-037B,2026-06-16T05:06:50.586336,13.42977039,.0038695,99.6488,38.7423,253.5353,228.5477,0,U,3891,999,80162,.48449E-4,-.15E-6,0
ATS 5,1969-069A,2026-06-15T22:18:19.652832,0.99496694,.0005191,0.2540,152.6669,126.3287,104.8812,0,U,4068,999,4631,0,-.312E-5,0
OPS 7613 (P/L 4),1969-082E,2026-06-16T04:07:19.161120,13.95996351,.0018598,70.0145,106.0600,137.0328,319.8201,0,U,4237,999,88616,.43476E-4,.7E-7,0
OPS 7613 (P/L 1),1969-082B,2026-06-16T03:56:20.540832,13.99197216,.0017276,70.0102,327.2122,63.3697,296.9178,0,U,4256,999,89032,.70869E-4,.5E-6,0
SHINSEI (MS-F2),1971-080A,2026-06-16T03:37:01.567776,12.74252308,.0639519,32.0525,107.6131,32.2289,331.5790,0,U,5485,999,54912,.46714E-4,.36E-6,0
PROSPERO (BLACK ARROW),1971-093A,2026-06-16T02:02:38.097024,14.01605910,.0500375,82.0385,291.7962,230.2047,125.4057,0,U,5580,999,74837,.18623E-3,.878E-5,0
OPS 7898 (P/L 2),1971-110C,2026-06-15T22:24:07.246080,13.74758750,.0007885,69.9904,5.5078,189.5371,170.5575,0,U,5680,999,34804,.45539E-4,-.7E-7,0
NOAA 2 (ITOS-D),1972-082A,2026-06-16T00:05:41.719776,12.53215011,.0004254,102.0074,185.5626,167.0023,248.2556,0,U,6235,999,45480,.13254E-3,-.25E-6,0
OSCAR 7 (AO-7),1974-089B,2026-06-15T22:44:43.388160,12.53698099,.0012561,101.9900,180.1815,132.4491,296.7122,0,U,7530,999,36036,.56046E-4,-.37E-6,0
TIROS N,1978-096A,2026-06-16T01:56:13.924608,14.19374922,.0009277,98.4530,188.1840,242.4267,117.5968,0,U,11060,999,67859,.65762E-4,.97E-6,0
PHASE 3B (AO-10),1983-058B,2026-06-15T10:15:11.279232,2.05868643,.60114563,25.9108,219.8563,115.1838,317.1369,0,U,14129,999,29545,0,.161E-5,0
HILAT,1983-063A,2026-06-16T01:21:30.367872,14.38710976,.0037934,82.0233,162.0775,295.1001,124.9477,0,U,14154,999,24742,.9676E-4,.314E-5,0
UOSAT 2 (UO-11),1984-021B,2026-06-16T05:08:58.956000,14.90781223,.0007545,97.8058,132.8001,175.7065,184.4219,0,U,14781,999,25698,.10535E-3,.98E-5,0
NOAA 9,1984-123A,2026-06-16T00:03:05.246784,14.17067930,.0014532,99.0988,193.6126,357.6719,58.9124,0,U,15427,999,14325,.59224E-4,.73E-6,0
GEOSAT,1985-021A,2026-06-16T00:54:14.522112,14.39965807,.0001324,108.0427,79.0558,288.1793,71.9205,0,U,15595,999,16260,.6913E-4,.82E-6,0
EUTELSAT 1-F4 (ECS 4),1987-078B,2026-06-15T19:42:37.207872,0.98690229,.00109891,13.8296,342.1367,44.4540,132.2128,0,U,18351,999,12674,0,-.221E-5,0
PACSAT (AO-16),1990-005D,2026-06-16T01:22:16.406976,14.33936391,.00097,98.8522,202.7101,231.2089,189.8598,0,U,20439,999,90177,.54269E-4,.105E-5,0
LUSAT (LO-19),1990-005G,2026-06-16T03:15:01.353312,14.34122929,.0011065,98.8851,188.9120,204.3265,155.7398,0,U,20442,999,90224,.50454E-4,.94E-6,0
IRS-1B,1991-061A,2026-06-16T01:07:11.036064,13.97877099,.0024693,99.4113,174.9644,8.8221,58.8027,0,U,21688,999,66833,.12108E-3,.125E-5,0
COSMOS 2197,1992-042A,2026-06-16T04:45:54.314784,12.64252025,.001136,82.5939,229.5654,276.3219,138.3990,0,U,22034,999,56516,.12319E-3,.33E-6,0
PEGASUS R/B,1993-009C,2026-06-16T02:18:09.051840,14.57969677,.0044208,24.9772,96.8829,95.3055,265.2502,0,U,22491,999,76947,.13041E-3,.822E-5,0
EYESAT A (AO-27),1993-061C,2026-06-16T03:51:32.183424,14.30942024,.0009533,98.6881,234.5747,102.3705,257.8545,0,U,22825,999,70685,.50437E-4,.88E-6,0
ITAMSAT (IO-26),1993-061D,2026-06-16T00:01:00.640704,14.31368850,.0010096,98.6828,234.3320,88.1549,272.0790,0,U,22826,999,70714,.4866E-4,.84E-6,0
RADIO ROSTO (RS15),1994-085A,2026-06-16T01:14:27.916800,11.27583453,.0155919,64.8179,305.0526,4.0859,356.1299,0,U,23439,999,29577,-.32993E-3,-.54E-6,0
JAS-2 (FO-29),1996-046B,2026-06-15T19:58:41.761056,13.53274294,.03508846,98.5240,15.8902,99.9379,264.1549,0,U,24278,999,47298,.45763049E-4,.13E-6,0
FORTE,1997-047A,2026-06-15T23:22:37.036992,14.27944698,.0024626,69.9540,16.7616,278.8825,80.9509,0,U,24920,999,49851,.69421E-4,.115E-5,0
NOAA 15,1998-030A,2026-06-16T04:54:04.843008,14.27146503,.001009,98.5066,187.8633,357.5859,2.5271,0,U,25338,999,46115,.63367E-4,.112E-5,0
TECHSAT 1B (GO-32),1998-043D,2026-06-16T05:18:55.343232,14.24428194,.0001002,99.0067,159.9557,165.2007,194.9200,0,U,25397,999,45119,.33141E-4,.3E-6,0
ISS (ZARYA),1998-067A,2026-06-16T02:13:48.364032,15.49253146,.0004806,51.6337,305.5091,191.3253,168.7628,0,U,25544,999,57158,.14355E-3,.7536E-4,0
ORSTED,1999-008B,2026-06-16T00:13:24.579264,14.51806542,.0131568,96.4826,74.7921,189.7203,170.1449,0,U,25635,999,44179,.81818E-4,.336E-5,0
LANDSAT 7,1999-020A,2026-06-16T03:36:50.225184,14.63916123,.0001832,97.8579,170.8336,91.1025,333.2695,0,U,25682,999,44569,.73764E-4,.341E-5,0
ORBCOMM FM36,1999-065E,2026-06-15T18:57:12.067200,14.39194400,.00052039,45.0370,166.2204,307.8605,52.1773,0,U,25984,999,38678,.2612603E-3,.674E-5,0
DMSP 5D-3 F15 (USA 147),1999-067A,2026-06-16T04:00:31.938912,14.17564623,.0010084,98.9961,205.7091,11.8563,59.6863,0,U,25991,999,37050,.89673E-4,.136E-5,0
OPAL (OO-38),2000-004C,2026-06-16T01:32:14.245728,14.37964256,.0036321,100.1912,103.6795,39.1039,321.2758,0,U,26063,999,38312,.58328E-4,.118E-5,0
IMAGE,2000-017A,2026-06-11T08:17:58.695072,1.68665984,.7436383,94.2241,315.2958,288.4674,8.8959,0,U,26113,999,16140,.22926E-1,.11E-6,0
CLUSTER II-FM7 (SAMBA),2000-041A,2026-06-17T03:20:03.973632,0.44868040,.9054007,149.9159,50.9864,268.1291,359.6411,0,U,26410,999,2030,0,.13373E-3,0
CLUSTER II-FM8 (TANGO),2000-045B,2026-06-15T04:28:42.164832,0.44404213,.90566584,150.1471,51.6871,268.6526,2.8141,0,U,26464,999,2030,0,.11723E-3,0
MEGSAT-1,2000-057B,2026-06-16T01:57:20.911392,15.05491894,.0042199,64.5506,72.6565,283.8758,75.7667,0,U,26546,999,39749,.17689E-3,.2418E-4,0
PHASE 3D (AO-40),2000-072B,2026-06-15T18:21:48.597984,1.25588280,.7931038,9.4296,351.1573,178.0292,190.7243,0,U,26609,999,11749,0,-.109E-5,0
ODIN,2001-007A,2026-06-16T01:52:44.156640,15.75459520,.0006782,97.3827,207.9489,144.4595,215.7123,0,U,26702,999,38922,.10319E-2,.158692E-2,0
OMNI-M1,2001-026A,2026-06-15T04:33:26.191008,3.92401526,.00141277,44.8311,245.7243,52.9927,307.1972,0,U,26857,999,20549,0,.3E-7,0
PCSAT (NO-44),2001-043C,2026-06-15T14:56:42.677952,14.31955610,.00060764,67.0507,248.3182,264.5919,95.4489,0,U,26931,999,29022,.62366377E-4,.84E-6,0
PROBA-1,2001-049B,2026-06-16T03:23:03.803136,15.07492331,.0056393,97.9597,175.6367,125.2911,235.3609,0,U,26958,999,34346,.1125E-3,.1698E-4,0
SPOT 5,2002-021A,2026-06-16T00:02:49.888320,14.54750252,.0128215,97.9848,205.9176,280.2559,78.4202,0,U,27421,999,26267,.58085E-4,.227E-5,0
FENGYUN 1D,2002-024B,2026-06-16T03:43:05.734272,14.10224379,.0014445,98.9519,217.4901,244.0809,115.8873,0,U,27431,999,23933,.47937E-4,.4E-6,0
SAUDISAT 1C (SO-50),2002-058C,2026-06-16T01:49:59.161152,14.83044860,.0075289,64.5510,132.4221,262.6786,96.5759,0,U,27607,999,26429,.11773E-3,.851E-5,0
CORIOLIS,2003-001A,2026-06-15T23:58:57.360000,14.19944511,.0013308,98.7125,173.9021,212.3893,147.6467,0,U,27640,999,21405,.56891E-4,.77E-6,0
CUTE-1 (CO-55),2003-031E,2026-06-15T23:36:10.556064,14.24335068,.0009449,98.6736,175.5574,181.4906,178.6246,0,U,27844,999,19150,.12048E-3,.235E-5,0
CUBESAT XI-IV (CO-57),2003-031J,2026-06-15T23:18:41.130432,14.23620242,.0008944,98.6765,175.2591,200.7616,159.3200,0,U,27848,999,19120,.10702E-3,.2E-5,0
MOZHAETS 4 (RS22),2003-042A,2026-06-16T04:54:43.018848,14.73464813,.0009956,98.3461,351.5356,273.5563,206.8206,0,U,27939,999,21540,.75567E-4,.437E-5,0
IRS-P6 (RESOURCESAT-1),2003-046A,2026-06-16T04:31:08.574816,14.36161656,.0063876,98.1903,203.7507,346.4874,101.6059,0,U,28051,999,18038,.75826E-5,-.19E-6,0
SAUDISAT 2,2004-025F,2026-06-15T23:58:00.817248,14.56683369,.0023635,98.5507,166.9498,302.0706,57.8196,0,U,28371,999,16557,.58286E-4,.211E-5,0
COSMOS 2407,2004-028A,2026-06-16T04:53:17.880288,13.76334649,.0037819,82.9608,75.5626,254.7999,216.1802,0,U,28380,999,9974,.45936E-4,.6E-6,0
COSMOS 2414,2005-002A,2026-06-16T04:00:32.821056,13.87926499,.0039562,82.9500,44.4184,334.2399,25.6792,0,U,28521,999,8367,.43021E-4,.67E-6,0
INMARSAT 4-F1,2005-009A,2026-06-14T19:05:11.796288,1.00271327,.0002458,5.1647,42.7552,42.6985,282.0547,0,U,28628,999,7764,0,.34E-6,0
HAMSAT (VO-52),2005-017B,2026-06-15T23:54:18.821088,15.09723504,.0020205,97.9902,190.0155,44.9271,315.3587,0,U,28650,999,14658,.27438E-3,.4374E-4,0
NOAA 18,2005-018A,2026-06-16T04:50:51.057312,14.13729007,.0014848,98.8114,246.8932,150.2743,209.9276,0,U,28654,999,8617,.48187E-4,.47E-6,0
